[{"OBJECT_NAME":"STARLINK-31744","OBJECT_ID":"2024-071L","EPOCH":"2026-02-22T18:13:45.651360","MEAN_MOTION":15.27582904,"ECCENTRICITY":0.0001075,"INCLINATION":43.0031,"RA_OF_ASC_NODE":71.725,"ARG_OF_PERICENTER":279.4484,"MEAN_ANOMALY":80.6246,"EPHEMERIS_TYPE":0,"CLASSIFICATION_TYPE":"U","NORAD_CAT_ID":59494,"ELEMENT_SET_NO":999,"REV_AT_EPOCH":10583,"BSTAR":9.7867e-5,"MEAN_MOTION_DOT":2.432e-5,"MEAN_MOTION_DDOT":0},{"OBJECT_NAME":"STARLINK-31719","OBJECT_ID":"2024-071M","EPOCH":"2026-02-22T17:19:38.829216","MEAN_MOTION":15.27579387,"ECCENTRICITY":0.0001008,"INCLINATION":43.0009,"RA_OF_ASC_NODE":64.5247,"ARG_OF_PERICENTER":268.7727,"MEAN_ANOMALY":91.3009,"EPHEMERIS_TYPE":0,"CLASSIFICATION_TYPE":"U","NORAD_CAT_ID":59495,"ELEMENT_SET_NO":999,"REV_AT_EPOCH":10591,"BSTAR":4.9635e-5,"MEAN_MOTION_DOT":1.104e-5,"MEAN_MOTION_DDOT":0},{"OBJECT_NAME":"STARLINK-31728","OBJECT_ID":"2024-071N","EPOCH":"2026-02-22T01:08:28.958496","MEAN_MOTION":15.27600635,"ECCENTRICITY":7.94e-5,"INCLINATION":42.9961,"RA_OF_ASC_NODE":68.0539,"ARG_OF_PERICENTER":334.7477,"MEAN_ANOMALY":25.3336,"EPHEMERIS_TYPE":0,"CLASSIFICATION_TYPE":"U","NORAD_CAT_ID":59496,"ELEMENT_SET_NO":999,"REV_AT_EPOCH":10581,"BSTAR":0.00075937,"MEAN_MOTION_DOT":0.00020706,"MEAN_MOTION_DDOT":0},{"OBJECT_NAME":"STARLINK-31720","OBJECT_ID":"2024-071P","EPOCH":"2026-02-22T17:43:44.232960","MEAN_MOTION":15.2756314,"ECCENTRICITY":8.72e-5,"INCLINATION":43.0004,"RA_OF_ASC_NODE":64.6444,"ARG_OF_PERICENTER":248.3385,"MEAN_ANOMALY":111.7373,"EPHEMERIS_TYPE":0,"CLASSIFICATION_TYPE":"U","NORAD_CAT_ID":59497,"ELEMENT_SET_NO":999,"REV_AT_EPOCH":10591,"BSTAR":-2.2419e-5,"MEAN_MOTION_DOT":-8.78e-6,"MEAN_MOTION_DDOT":0},{"OBJECT_NAME":"STARLINK-31731","OBJECT_ID":"2024-071Q","EPOCH":"2026-02-22T17:50:54.676032","MEAN_MOTION":15.27567947,"ECCENTRICITY":0.000141,"INCLINATION":43.0056,"RA_OF_ASC_NODE":63.8197,"ARG_OF_PERICENTER":261.1096,"MEAN_ANOMALY":98.9596,"EPHEMERIS_TYPE":0,"CLASSIFICATION_TYPE":"U","NORAD_CAT_ID":59498,"ELEMENT_SET_NO":999,"REV_AT_EPOCH":10592,"BSTAR":-5.3999e-5,"MEAN_MOTION_DOT":-1.747e-5,"MEAN_MOTION_DDOT":0},{"OBJECT_NAME":"STARLINK-31742","OBJECT_ID":"2024-071R","EPOCH":"2026-02-22T02:22:17.013792","MEAN_MOTION":15.27579095,"ECCENTRICITY":0.0001211,"INCLINATION":43.0041,"RA_OF_ASC_NODE":67.5786,"ARG_OF_PERICENTER":259.9694,"MEAN_ANOMALY":100.1021,"EPHEMERIS_TYPE":0,"CLASSIFICATION_TYPE":"U","NORAD_CAT_ID":59499,"ELEMENT_SET_NO":999,"REV_AT_EPOCH":10582,"BSTAR":2.4437e-5,"MEAN_MOTION_DOT":4.1e-6,"MEAN_MOTION_DDOT":0},{"OBJECT_NAME":"STARLINK-31512","OBJECT_ID":"2024-071S","EPOCH":"2026-02-22T14:25:47.918784","MEAN_MOTION":15.27575869,"ECCENTRICITY":8.15e-5,"INCLINATION":43.0025,"RA_OF_ASC_NODE":24.8015,"ARG_OF_PERICENTER":271.1646,"MEAN_ANOMALY":88.9112,"EPHEMERIS_TYPE":0,"CLASSIFICATION_TYPE":"U","NORAD_CAT_ID":59500,"ELEMENT_SET_NO":999,"REV_AT_EPOCH":10635,"BSTAR":6.2521e-5,"MEAN_MOTION_DOT":1.459e-5,"MEAN_MOTION_DDOT":0},{"OBJECT_NAME":"STARLINK-31458","OBJECT_ID":"2024-071T","EPOCH":"2026-02-22T02:29:41.005248","MEAN_MOTION":15.27575608,"ECCENTRICITY":0.0001023,"INCLINATION":43.0032,"RA_OF_ASC_NODE":67.6167,"ARG_OF_PERICENTER":250.2856,"MEAN_ANOMALY":109.7885,"EPHEMERIS_TYPE":0,"CLASSIFICATION_TYPE":"U","NORAD_CAT_ID":59501,"ELEMENT_SET_NO":999,"REV_AT_EPOCH":10582,"BSTAR":7.384e-5,"MEAN_MOTION_DOT":1.77e-5,"MEAN_MOTION_DDOT":0},{"OBJECT_NAME":"STARLINK-31357","OBJECT_ID":"2024-071U","EPOCH":"2026-02-22T17:30:44.844480","MEAN_MOTION":15.2758485,"ECCENTRICITY":0.0001126,"INCLINATION":43.0027,"RA_OF_ASC_NODE":64.5794,"ARG_OF_PERICENTER":276.6416,"MEAN_ANOMALY":83.4307,"EPHEMERIS_TYPE":0,"CLASSIFICATION_TYPE":"U","NORAD_CAT_ID":59502,"ELEMENT_SET_NO":999,"REV_AT_EPOCH":10591,"BSTAR":1.8762e-5,"MEAN_MOTION_DOT":2.54e-6,"MEAN_MOTION_DDOT":0},{"OBJECT_NAME":"STARLINK-31508","OBJECT_ID":"2024-071V","EPOCH":"2026-02-22T17:36:17.880192","MEAN_MOTION":15.27577172,"ECCENTRICITY":0.0001513,"INCLINATION":43.0029,"RA_OF_ASC_NODE":64.6061,"ARG_OF_PERICENTER":270.6252,"MEAN_ANOMALY":89.4427,"EPHEMERIS_TYPE":0,"CLASSIFICATION_TYPE":"U","NORAD_CAT_ID":59503,"ELEMENT_SET_NO":999,"REV_AT_EPOCH":10591,"BSTAR":4.7207e-5,"MEAN_MOTION_DOT":1.037e-5,"MEAN_MOTION_DDOT":0},{"OBJECT_NAME":"STARLINK-31535","OBJECT_ID":"2024-071W","EPOCH":"2026-02-22T18:24:51.704640","MEAN_MOTION":15.27584538,"ECCENTRICITY":9.73e-5,"INCLINATION":43.0044,"RA_OF_ASC_NODE":71.7795,"ARG_OF_PERICENTER":259.76,"MEAN_ANOMALY":100.3142,"EPHEMERIS_TYPE":0,"CLASSIFICATION_TYPE":"U","NORAD_CAT_ID":59504,"ELEMENT_SET_NO":999,"REV_AT_EPOCH":10583,"BSTAR":5.2968e-5,"MEAN_MOTION_DOT":1.196e-5,"MEAN_MOTION_DDOT":0},{"OBJECT_NAME":"STARLINK-31533","OBJECT_ID":"2024-071X","EPOCH":"2026-02-22T17:47:23.841024","MEAN_MOTION":15.27583812,"ECCENTRICITY":9.94e-5,"INCLINATION":43.0039,"RA_OF_ASC_NODE":64.6613,"ARG_OF_PERICENTER":266.8209,"MEAN_ANOMALY":93.2529,"EPHEMERIS_TYPE":0,"CLASSIFICATION_TYPE":"U","NORAD_CAT_ID":59505,"ELEMENT_SET_NO":999,"REV_AT_EPOCH":10591,"BSTAR":2.1005e-5,"MEAN_MOTION_DOT":3.16e-6,"MEAN_MOTION_DDOT":0},{"OBJECT_NAME":"STARLINK-31524","OBJECT_ID":"2024-071Y","EPOCH":"2026-02-22T17:11:44.549376","MEAN_MOTION":15.27578244,"ECCENTRICITY":8.49e-5,"INCLINATION":43.0032,"RA_OF_ASC_NODE":57.3623,"ARG_OF_PERICENTER":280.8163,"MEAN_ANOMALY":79.2593,"EPHEMERIS_TYPE":0,"CLASSIFICATION_TYPE":"U","NORAD_CAT_ID":59506,"ELEMENT_SET_NO":999,"REV_AT_EPOCH":10599,"BSTAR":2.0716e-5,"MEAN_MOTION_DOT":3.08e-6,"MEAN_MOTION_DDOT":0},{"OBJECT_NAME":"STARLINK-31635","OBJECT_ID":"2024-073A","EPOCH":"2026-02-22T16:11:26.931264","MEAN_MOTION":15.27570257,"ECCENTRICITY":6.5e-5,"INCLINATION":43.0032,"RA_OF_ASC_NODE":42.4418,"ARG_OF_PERICENTER":240.4638,"MEAN_ANOMALY":119.6149,"EPHEMERIS_TYPE":0,"CLASSIFICATION_TYPE":"U","NORAD_CAT_ID":59511,"ELEMENT_SET_NO":999,"REV_AT_EPOCH":10388,"BSTAR":-3.6928e-5,"MEAN_MOTION_DOT":-1.278e-5,"MEAN_MOTION_DDOT":0},{"OBJECT_NAME":"STARLINK-31650","OBJECT_ID":"2024-073B","EPOCH":"2026-02-22T01:21:40.766976","MEAN_MOTION":15.27549378,"ECCENTRICITY":0.0001247,"INCLINATION":43.0032,"RA_OF_ASC_NODE":46.4016,"ARG_OF_PERICENTER":279.0792,"MEAN_ANOMALY":80.9919,"EPHEMERIS_TYPE":0,"CLASSIFICATION_TYPE":"U","NORAD_CAT_ID":59512,"ELEMENT_SET_NO":999,"REV_AT_EPOCH":10378,"BSTAR":0.00020878,"MEAN_MOTION_DOT":5.482e-5,"MEAN_MOTION_DDOT":0},{"OBJECT_NAME":"STARLINK-31658","OBJECT_ID":"2024-073C","EPOCH":"2026-02-22T20:51:53.389152","MEAN_MOTION":15.27580178,"ECCENTRICITY":8.2e-5,"INCLINATION":43.0032,"RA_OF_ASC_NODE":1.4375,"ARG_OF_PERICENTER":248.0948,"MEAN_ANOMALY":111.9817,"EPHEMERIS_TYPE":0,"CLASSIFICATION_TYPE":"U","NORAD_CAT_ID":59513,"ELEMENT_SET_NO":999,"REV_AT_EPOCH":10436,"BSTAR":8.6237e-5,"MEAN_MOTION_DOT":2.112e-5,"MEAN_MOTION_DDOT":0},{"OBJECT_NAME":"STARLINK-31669","OBJECT_ID":"2024-073E","EPOCH":"2026-02-22T16:26:13.879968","MEAN_MOTION":15.27592097,"ECCENTRICITY":0.0001752,"INCLINATION":43.0054,"RA_OF_ASC_NODE":42.521,"ARG_OF_PERICENTER":289.184,"MEAN_ANOMALY":70.8822,"EPHEMERIS_TYPE":0,"CLASSIFICATION_TYPE":"U","NORAD_CAT_ID":59515,"ELEMENT_SET_NO":999,"REV_AT_EPOCH":10388,"BSTAR":0.00010057,"MEAN_MOTION_DOT":2.507e-5,"MEAN_MOTION_DDOT":0}]
