STARLINK-31744          
1 59494U 24071L   26053.75955615  .00002432  00000+0  97867-4 0  9995
2 59494  43.0031  71.7250 0001075 279.4484  80.6246 15.27582904105833
STARLINK-31719          
1 59495U 24071M   26053.72197719  .00001104  00000+0  49635-4 0  9991
2 59495  43.0009  64.5247 0001008 268.7727  91.3009 15.27579387105918
STARLINK-31728          
1 59496U 24071N   26053.04755739  .00020706  00000+0  75937-3 0  9991
2 59496  42.9961  68.0539 0000794 334.7477  25.3336 15.27600635105814
STARLINK-31720          
1 59497U 24071P   26053.73870640 -.00000878  00000+0 -22419-4 0  9995
2 59497  43.0004  64.6444 0000872 248.3385 111.7373 15.27563140105918
STARLINK-31731          
1 59498U 24071Q   26053.74368838 -.00001747  00000+0 -53999-4 0  9991
2 59498  43.0056  63.8197 0001410 261.1096  98.9596 15.27567947105926
STARLINK-31742          
1 59499U 24071R   26053.09880803  .00000410  00000+0  24437-4 0  9990
2 59499  43.0041  67.5786 0001211 259.9694 100.1021 15.27579095105829
STARLINK-31512          
1 59500U 24071S   26053.60124906  .00001459  00000+0  62521-4 0  9995
2 59500  43.0025  24.8015 0000815 271.1646  88.9112 15.27575869106355
STARLINK-31458          
1 59501U 24071T   26053.10394682  .00001770  00000+0  73840-4 0  9993
2 59501  43.0032  67.6167 0001023 250.2856 109.7885 15.27575608105821
STARLINK-31357          
1 59502U 24071U   26053.72968570  .00000254  00000+0  18762-4 0  9993
2 59502  43.0027  64.5794 0001126 276.6416  83.4307 15.27584850105912
STARLINK-31508          
1 59503U 24071V   26053.73354028  .00001037  00000+0  47207-4 0  9998
2 59503  43.0029  64.6061 0001513 270.6252  89.4427 15.27577172105913
STARLINK-31535          
1 59504U 24071W   26053.76726510  .00001196  00000+0  52968-4 0  9997
2 59504  43.0044  71.7795 0000973 259.7600 100.3142 15.27584538105830
STARLINK-31533          
1 59505U 24071X   26053.74124816  .00000316  00000+0  21005-4 0  9998
2 59505  43.0039  64.6613 0000994 266.8209  93.2529 15.27583812105914
STARLINK-31524          
1 59506U 24071Y   26053.71648784  .00000308  00000+0  20716-4 0  9990
2 59506  43.0032  57.3623 0000849 280.8163  79.2593 15.27578244105998
STARLINK-31635          
1 59511U 24073A   26053.67461726 -.00001278  00000+0 -36928-4 0  9993
2 59511  43.0032  42.4418 0000650 240.4638 119.6149 15.27570257103888
STARLINK-31650          
1 59512U 24073B   26053.05672184  .00005482  00000+0  20878-3 0  9993
2 59512  43.0032  46.4016 0001247 279.0792  80.9919 15.27549378103783
STARLINK-31658          
1 59513U 24073C   26053.86936793  .00002112  00000+0  86237-4 0  9991
2 59513  43.0032   1.4375 0000820 248.0948 111.9817 15.27580178104368
STARLINK-31669          
1 59515U 24073E   26053.68488287  .00002507  00000+0  10057-3 0  9997
2 59515  43.0054  42.5210 0001752 289.1840  70.8822 15.27592097103888
